{
  "type": "FeatureCollection",
  "features": [
    {
      "type": "Feature",
      "properties": {
        "name": "Highland Park/Eagle Rock/Glendale",
        "id": "0ee5d1e3-10e2-44f4-adc3-fbd90ddb26f3"
      },
      "geometry": {
        "type": "Polygon",
        "coordinates": [
          [
            [
              -118.25613174447915,
              34.1567089252674
            ],
            [
              -118.24650131396496,
              34.15675659230349
            ],
            [
              -118.24260210088464,
              34.156468746637465
            ],
            [
              -118.23977438953868,
              34.159836203187126
            ],
            [
              -118.23496787097497,
              34.16296114399228
            ],
            [
              -118.22956551540065,
              34.16953627850431
            ],
            [
              -118.22954516636777,
              34.16957205187663
            ],
            [
              -118.22952481733537,
              34.16960782523225
            ],
            [
              -118.22941289765848,
              34.169691997779225
            ],
            [
              -118.22936965596416,
              34.16973618833312
            ],
            [
              -118.22931623975491,
              34.16976775299974
            ],
            [
              -118.2290883924989,
              34.17011678556883
            ],
            [
              -118.2281679241709,
              34.170051045559724
            ],
            [
              -118.22753882711214,
              34.169820955124656
            ],
            [
              -118.2262541446975,
              34.16904302567506
            ],
            [
              -118.22629897145772,
              34.16791464837603
            ],
            [
              -118.22653500584678,
              34.166938174098256
            ],
            [
              -118.22576252964888,
              34.16619249522492
            ],
            [
              -118.22438923863837,
              34.165997197288405
            ],
            [
              -118.22563378361441,
              34.16134542199287
            ],
            [
              -118.22468964604019,
              34.15772325153611
            ],
            [
              -118.22426049261288,
              34.15516633177986
            ],
            [
              -118.21743695288424,
              34.15339064751032
            ],
            [
              -118.21044175176131,
              34.15562800357454
            ],
            [
              -118.206536455439,
              34.15591210803947
            ],
            [
              -118.20190159826056,
              34.155343898153816
            ],
            [
              -118.20151536017508,
              34.14760165755502
            ],
            [
              -118.19906918554693,
              34.14820543577533
            ],
            [
              -118.19666592626955,
              34.147992338072626
            ],
            [
              -118.19490639715562,
              34.14731752513394
            ],
            [
              -118.18400589972832,
              34.14223849689974
            ],
            [
              -118.18018643408966,
              34.14126172569698
            ],
            [
              -118.17956416159714,
              34.14053357981627
            ],
            [
              -118.17778317481228,
              34.13950350907369
            ],
            [
              -118.17735402136701,
              34.139095029267324
            ],
            [
              -118.1768819525799,
              34.13820702287641
            ],
            [
              -118.17675320654541,
              34.13726572591523
            ],
            [
              -118.17600218802741,
              34.13621785469973
            ],
            [
              -118.17578761130031,
              34.135436382962304
            ],
            [
              -118.17707446234012,
              34.12929945242532
            ],
            [
              -118.18739600176458,
              34.129269428700326
            ],
            [
              -118.1877977975567,
              34.12922209905473
            ],
            [
              -118.1876480448212,
              34.12885569583907
            ],
            [
              -118.18721740122267,
              34.128943117677736
            ],
            [
              -118.18739836492969,
              34.12927239655994
            ],
            [
              -118.18222534959908,
              34.12926834791652
            ],
            [
              -118.17707299532431,
              34.12930241725532
            ],
            [
              -118.17625968007843,
              34.1277278427703
            ],
            [
              -118.17684976606905,
              34.12209696708697
            ],
            [
              -118.17041246441688,
              34.11992089731724
            ],
            [
              -118.16955952195082,
              34.1190548947908
            ],
            [
              -118.16505341080689,
              34.118912780708406
            ],
            [
              -118.16565422561949,
              34.1166033934012
            ],
            [
              -118.16685585526264,
              34.11543091109397
            ],
            [
              -118.1705894901997,
              34.11269505583394
            ],
            [
              -118.16891579176944,
              34.11187783514959
            ],
            [
              -118.1705894901997,
              34.11084741520793
            ],
            [
              -118.17625431563599,
              34.109319528052076
            ],
            [
              -118.17788509871545,
              34.10914186496344
            ],
            [
              -118.18198351408502,
              34.10827131043847
            ],
            [
              -118.18345958136084,
              34.10586233021255
            ],
            [
              -118.17641441148317,
              34.10397440223448
            ],
            [
              -118.18349666120224,
              34.08702721169061
            ],
            [
              -118.18358936080591,
              34.08493927956259
            ],
            [
              -118.18961192336573,
              34.0842764557723
            ],
            [
              -118.20774169096215,
              34.08394418754007
            ],
            [
              -118.21623815308804,
              34.08586591644767
            ],
            [
              -118.21965670006854,
              34.084743177541355
            ],
            [
              -118.2225153126298,
              34.082937001106686
            ],
            [
              -118.22416564565489,
              34.084499101896085
            ],
            [
              -118.2262875024014,
              34.08642728031799
            ],
            [
              -118.22752525217018,
              34.08823338230171
            ],
            [
              -118.22956480876745,
              34.0906988158064
            ],
            [
              -118.23139175392116,
              34.092741323709056
            ],
            [
              -118.23331004633252,
              34.093611265813045
            ],
            [
              -118.23586776954761,
              34.093913852275165
            ],
            [
              -118.23879088179349,
              34.09482160517159
            ],
            [
              -118.24006974340104,
              34.09629668286494
            ],
            [
              -118.24239909847195,
              34.099851892677236
            ],
            [
              -118.24249044572967,
              34.10174290087744
            ],
            [
              -118.24235342484317,
              34.10454151546251
            ],
            [
              -118.24385064071875,
              34.10646489195229
            ],
            [
              -118.24517629601985,
              34.10736651894285
            ],
            [
              -118.24650195132156,
              34.107895730309714
            ],
            [
              -118.24811167561657,
              34.10840533812672
            ],
            [
              -118.25038422756242,
              34.108620940509894
            ],
            [
              -118.25260943467606,
              34.10838573788288
            ],
            [
              -118.25637422403449,
              34.10489766547597
            ],
            [
              -118.2581580811779,
              34.104017092410835
            ],
            [
              -118.25867840607026,
              34.09407400915233
            ],
            [
              -118.25782957805104,
              34.091503940699894
            ],
            [
              -118.25858409184681,
              34.08976448545315
            ],
            [
              -118.25920005166296,
              34.08662627579074
            ],
            [
              -118.25939725413228,
              34.083118727341464
            ],
            [
              -118.2630281175168,
              34.077270302006475
            ],
            [
              -118.26514590055481,
              34.077000465933644
            ],
            [
              -118.26615763496157,
              34.07746202711192
            ],
            [
              -118.26680068649137,
              34.07783837513428
            ],
            [
              -118.27012716258788,
              34.07972435459499
            ],
            [
              -118.27197082079097,
              34.08134614230068
            ],
            [
              -118.27476352584044,
              34.08340065382202
            ],
            [
              -118.27891964786285,
              34.092446573818826
            ],
            [
              -118.27868758996314,
              34.09341180339984
            ],
            [
              -118.27848586999286,
              34.094067076667315
            ],
            [
              -118.27758112301531,
              34.095470515618594
            ],
            [
              -118.27709017719994,
              34.095971306804095
            ],
            [
              -118.27660737958186,
              34.0961756511265
            ],
            [
              -118.27555595365307,
              34.097748197450535
            ],
            [
              -118.27444225949579,
              34.09915903970439
            ],
            [
              -118.2741953216218,
              34.099739701799365
            ],
            [
              -118.27385948611266,
              34.10249757289598
            ],
            [
              -118.27422495416613,
              34.104084098709336
            ],
            [
              -118.27210487719736,
              34.109475174733696
            ],
            [
              -118.26944782567331,
              34.11199376730796
            ],
            [
              -118.26662285639445,
              34.11315491135712
            ],
            [
              -118.26745090554633,
              34.11409997158698
            ],
            [
              -118.26827056175408,
              34.11579169081328
            ],
            [
              -118.26968153103333,
              34.11858474126098
            ],
            [
              -118.2734236669479,
              34.12711566957386
            ],
            [
              -118.2779633072377,
              34.142245793798494
            ],
            [
              -118.27050217731177,
              34.143559453423634
            ],
            [
              -118.2561531609217,
              34.14348856123556
            ],
            [
              -118.25561247285401,
              34.145145391407866
            ],
            [
              -118.25572432319287,
              34.15172972980365
            ],
            [
              -118.25520421844395,
              34.15360834006736
            ],
            [
              -118.25565290544242,
              34.155144099522914
            ],
            [
              -118.25613174447915,
              34.1567089252674
            ]
          ]
        ]
      }
    }
  ]
}