{
  "type": "FeatureCollection",
  "features": [
    {
      "type": "Feature",
      "properties": {
        "name": "UCLA/Westwood/VA Medical Center",
        "id": "c9784f9c-4bed-4c46-813b-7589a1832a9d"
      },
      "geometry": {
        "type": "Polygon",
        "coordinates": [
          [
            [
              -118.42010138174153,
              34.05086948843417
            ],
            [
              -118.4159782905806,
              34.04616703341626
            ],
            [
              -118.41859863869117,
              34.04457020209066
            ],
            [
              -118.4230880388097,
              34.04205805488522
            ],
            [
              -118.42407015475844,
              34.041859532233374
            ],
            [
              -118.42456134944862,
              34.04157367557074
            ],
            [
              -118.42485055194159,
              34.04123259524547
            ],
            [
              -118.42561471629338,
              34.04085568174128
            ],
            [
              -118.42676589565826,
              34.04000866089015
            ],
            [
              -118.4240319,
              34.0366234
            ],
            [
              -118.4260755,
              34.0363412
            ],
            [
              -118.4287331,
              34.0392304
            ],
            [
              -118.44177681036157,
              34.03326835013967
            ],
            [
              -118.44583893954001,
              34.03104351652019
            ],
            [
              -118.4468569669987,
              34.032399927602704
            ],
            [
              -118.45288528646788,
              34.03116757941056
            ],
            [
              -118.46839523423887,
              34.04432548650797
            ],
            [
              -118.46861480878907,
              34.045656876894135
            ],
            [
              -118.46924359045511,
              34.046798052017216
            ],
            [
              -118.47153914257065,
              34.0483857483765
            ],
            [
              -118.47205813696202,
              34.04906381797114
            ],
            [
              -118.47206811762332,
              34.04974188214309
            ],
            [
              -118.47313604839015,
              34.050494361644475
            ],
            [
              -118.46796606579973,
              34.055265422397916
            ],
            [
              -118.46915376450292,
              34.05909365305036
            ],
            [
              -118.46883072482545,
              34.06178717679829
            ],
            [
              -118.46927353243957,
              34.06408745645786
            ],
            [
              -118.47065086370894,
              34.0652035808913
            ],
            [
              -118.47098022553419,
              34.0670885576633
            ],
            [
              -118.47007198534965,
              34.07018875720274
            ],
            [
              -118.46850502151412,
              34.07225549387323
            ],
            [
              -118.46941548263409,
              34.073551346062075
            ],
            [
              -118.46971309497744,
              34.07502987044983
            ],
            [
              -118.47057286396952,
              34.07616612628425
            ],
            [
              -118.4697957650729,
              34.07664526574174
            ],
            [
              -118.4669669,
              34.0729491
            ],
            [
              -118.46453271828784,
              34.074264313594504
            ],
            [
              -118.4634448261983,
              34.07432218012337
            ],
            [
              -118.4618776,
              34.0731678
            ],
            [
              -118.46100954482311,
              34.073412844384315
            ],
            [
              -118.45954238760179,
              34.07451231272457
            ],
            [
              -118.4589335672581,
              34.07473551132186
            ],
            [
              -118.45733666143852,
              34.07480991072346
            ],
            [
              -118.4543624243492,
              34.07716585797643
            ],
            [
              -118.45349410680988,
              34.07730638609252
            ],
            [
              -118.45000087532907,
              34.07581842949622
            ],
            [
              -118.44896288654637,
              34.074123780427136
            ],
            [
              -118.44838400818678,
              34.07376831314999
            ],
            [
              -118.4454596744045,
              34.074140313751286
            ],
            [
              -118.44464126017242,
              34.0768765346457
            ],
            [
              -118.44290462509366,
              34.0777362353486
            ],
            [
              -118.44120791266039,
              34.077686637468375
            ],
            [
              -118.44047932438023,
              34.077926360287236
            ],
            [
              -118.43671661504371,
              34.08061286270937
            ],
            [
              -118.4352702,
              34.0808458
            ],
            [
              -118.43417154639378,
              34.08029048691821
            ],
            [
              -118.43264450520392,
              34.078199147496996
            ],
            [
              -118.4308978894629,
              34.07440484651898
            ],
            [
              -118.43125719327281,
              34.07173468097943
            ],
            [
              -118.42791269531857,
              34.06656219448561
            ],
            [
              -118.42960540744302,
              34.06573549661873
            ],
            [
              -118.43135953979431,
              34.064016628153716
            ],
            [
              -118.43249494620677,
              34.06136764234964
            ],
            [
              -118.43396178612637,
              34.060517840202046
            ],
            [
              -118.4408613704796,
              34.05906036835387
            ],
            [
              -118.4410567500432,
              34.05900339611576
            ],
            [
              -118.44208804307873,
              34.058723503864904
            ],
            [
              -118.44198316958641,
              34.058491761172924
            ],
            [
              -118.44066112798548,
              34.05881304064429
            ],
            [
              -118.44084466644543,
              34.05903753153913
            ],
            [
              -118.44086181608318,
              34.059061893232624
            ],
            [
              -118.43741380342375,
              34.059795717579775
            ],
            [
              -118.43396469275336,
              34.060523115603466
            ],
            [
              -118.43249939221897,
              34.06136973040177
            ],
            [
              -118.43193191253886,
              34.062694417240614
            ],
            [
              -118.4313709183409,
              34.06401997901601
            ],
            [
              -118.43048781186913,
              34.064881583050536
            ],
            [
              -118.42961010996483,
              34.06574049145289
            ],
            [
              -118.42791313652755,
              34.06656356153132
            ],
            [
              -118.42691560557569,
              34.06453390799035
            ],
            [
              -118.42477974404248,
              34.06117719620312
            ],
            [
              -118.42443042089442,
              34.05877946352396
            ],
            [
              -118.42286345706098,
              34.05676200832078
            ],
            [
              -118.42246423060674,
              34.05365304889554
            ],
            [
              -118.4213617081719,
              34.05289461406614
            ],
            [
              -118.420775004489,
              34.051679544491364
            ],
            [
              -118.42010138174153,
              34.05086948843417
            ]
          ]
        ]
      }
    }
  ]
}