{
  "type": "FeatureCollection",
  "features": [
    {
      "type": "Feature",
      "properties": {
        "name": "North Hollywood/Burbank",
        "id": "f412fb70-b590-45e3-9ed8-51447f90176c"
      },
      "geometry": {
        "type": "Polygon",
        "coordinates": [
          [
            [
              -118.37393339468126,
              34.149579675798435
            ],
            [
              -118.37311704785449,
              34.148998197252375
            ],
            [
              -118.37190651516245,
              34.14807211193323
            ],
            [
              -118.3707357838914,
              34.14722682030008
            ],
            [
              -118.37079247296863,
              34.14562925729757
            ],
            [
              -118.37081037296421,
              34.14029393530172
            ],
            [
              -118.36714087388677,
              34.13870809409182
            ],
            [
              -118.36626377410728,
              34.13841167187275
            ],
            [
              -118.36524026460462,
              34.138038462489
            ],
            [
              -118.36417182286318,
              34.137101714883784
            ],
            [
              -118.36054648668417,
              34.133724130377814
            ],
            [
              -118.35326434298135,
              34.13093796657329
            ],
            [
              -118.34612640014403,
              34.12691776837411
            ],
            [
              -118.34446809019185,
              34.12888808742064
            ],
            [
              -118.33939702642527,
              34.136012696225016
            ],
            [
              -118.33764258256237,
              34.14098762556819
            ],
            [
              -118.33956526076773,
              34.14552450575972
            ],
            [
              -118.3324269677326,
              34.14776366836621
            ],
            [
              -118.33063357073746,
              34.14909376413487
            ],
            [
              -118.3280182001196,
              34.15175389284009
            ],
            [
              -118.32443523800852,
              34.15373289657443
            ],
            [
              -118.31182668175973,
              34.15578145140623
            ],
            [
              -118.30939088834965,
              34.16140258300945
            ],
            [
              -118.31036231172205,
              34.163567494818274
            ],
            [
              -118.2883558360946,
              34.18410046860014
            ],
            [
              -118.31232930585567,
              34.2014091011046
            ],
            [
              -118.32891034903575,
              34.19235359856698
            ],
            [
              -118.33661538529977,
              34.192548685443235
            ],
            [
              -118.33655445130832,
              34.196580580691474
            ],
            [
              -118.3490167878899,
              34.19678226089885
            ],
            [
              -118.34902181485457,
              34.19928671159625
            ],
            [
              -118.36897761428914,
              34.199569612761195
            ],
            [
              -118.36917729666679,
              34.21627309629287
            ],
            [
              -118.38410129867161,
              34.21631081957357
            ],
            [
              -118.38418048755098,
              34.21630765316508
            ],
            [
              -118.3841498281336,
              34.21630765316508
            ],
            [
              -118.38401719282746,
              34.216312849294795
            ],
            [
              -118.38371826350765,
              34.21630650926043
            ],
            [
              -118.38393287942962,
              34.216312849294795
            ],
            [
              -118.38472235942803,
              34.216319189328864
            ],
            [
              -118.38450774350616,
              34.216325529362294
            ],
            [
              -118.38432378700165,
              34.21630016922552
            ],
            [
              -118.38421114696844,
              34.2163139931994
            ],
            [
              -118.38421114696844,
              34.21630765316508
            ],
            [
              -118.38427630418838,
              34.216309021823996
            ],
            [
              -118.38915142229567,
              34.2162809426841
            ],
            [
              -118.3897341258846,
              34.188070690051475
            ],
            [
              -118.39539848232627,
              34.18801017979521
            ],
            [
              -118.39539848232627,
              34.17369766580727
            ],
            [
              -118.39742334991827,
              34.17369393465717
            ],
            [
              -118.3972807617725,
              34.14945720504146
            ],
            [
              -118.37393339468126,
              34.149579675798435
            ]
          ]
        ]
      }
    }
  ]
}