{
  "type": "FeatureCollection",
  "features": [
    {
      "type": "Feature",
      "properties": {
        "name": "El Monte",
        "id": "3d113f23-6996-472e-bfc7-f62f90cb99df"
      },
      "geometry": {
        "type": "Polygon",
        "coordinates": [
          [
            [
              -118.08514021885657,
              34.10441078593333
            ],
            [
              -118.07426485150064,
              34.1047411621567
            ],
            [
              -118.07266846730154,
              34.10544320734805
            ],
            [
              -118.06957547291597,
              34.106723392406614
            ],
            [
              -118.05239173398536,
              34.10911852532997
            ],
            [
              -118.05039625373658,
              34.108994640807275
            ],
            [
              -118.0346319597711,
              34.10870557621543
            ],
            [
              -118.03004235519884,
              34.108375215472606
            ],
            [
              -118.02919427609307,
              34.10618654296674
            ],
            [
              -118.02744823087545,
              34.09652267055459
            ],
            [
              -118.02663479815341,
              34.095696647360604
            ],
            [
              -118.0255812066784,
              34.09601152279838
            ],
            [
              -118.0208513418467,
              34.09694588021609
            ],
            [
              -118.01660750990322,
              34.097307385122605
            ],
            [
              -118.0131591664551,
              34.098722612640834
            ],
            [
              -118.01186897812488,
              34.10074984191097
            ],
            [
              -118.01015079681181,
              34.10047640619802
            ],
            [
              -118.0080457842157,
              34.1047872762936
            ],
            [
              -118.00749063336227,
              34.1045975980987
            ],
            [
              -118.0081471212762,
              34.10316040718951
            ],
            [
              -117.99128907737851,
              34.097969625159855
            ],
            [
              -117.99505950834953,
              34.09165743302636
            ],
            [
              -117.99580781344169,
              34.0905282878481
            ],
            [
              -117.99915024285843,
              34.083630258365915
            ],
            [
              -117.98834852272945,
              34.08093872225258
            ],
            [
              -117.96659778801776,
              34.06408315227412
            ],
            [
              -117.98724836188526,
              34.042484007271916
            ],
            [
              -117.99091739868065,
              34.04341224822565
            ],
            [
              -117.99324657794406,
              34.04644239734631
            ],
            [
              -118.00351152591297,
              34.05289784981177
            ],
            [
              -118.00926983071679,
              34.04364768932224
            ],
            [
              -118.01146485899044,
              34.04125070438213
            ],
            [
              -118.01954655399804,
              34.037572440584135
            ],
            [
              -118.02712937894348,
              34.03302605144189
            ],
            [
              -118.02932440721716,
              34.03377002270195
            ],
            [
              -118.03627461225432,
              34.03594679002879
            ],
            [
              -118.05977139218389,
              34.03941848055709
            ],
            [
              -118.06865127929112,
              34.03950113812358
            ],
            [
              -118.0688044,
              34.0412172
            ],
            [
              -118.06865422043609,
              34.05006211340678
            ],
            [
              -118.08507440073426,
              34.05019515626327
            ],
            [
              -118.08375066337506,
              34.072150137268665
            ],
            [
              -118.0535509030942,
              34.07254508941598
            ],
            [
              -118.052044709108,
              34.07230303877968
            ],
            [
              -118.04760385654907,
              34.07031272738734
            ],
            [
              -118.04523182992872,
              34.069376674473965
            ],
            [
              -118.04290193962224,
              34.06887169426787
            ],
            [
              -118.04315155656903,
              34.063958399205156
            ],
            [
              -118.04369336853635,
              34.063930877974855
            ],
            [
              -118.04356558437854,
              34.06288356238242
            ],
            [
              -118.04313060960436,
              34.062881556518256
            ],
            [
              -118.04316637829193,
              34.06342209975501
            ],
            [
              -118.0432236081928,
              34.06394931120795
            ],
            [
              -118.04316358775348,
              34.06396111625363
            ],
            [
              -118.04293416150949,
              34.0688450082381
            ],
            [
              -118.04524670156896,
              34.06934793584377
            ],
            [
              -118.04762616400946,
              34.07027783086342
            ],
            [
              -118.052062059355,
              34.07227430114217
            ],
            [
              -118.05355418059408,
              34.072518570750816
            ],
            [
              -118.08375809919515,
              34.07209881995933
            ],
            [
              -118.08314473860749,
              34.08760119345253
            ],
            [
              -118.0839429307073,
              34.08896425774942
            ],
            [
              -118.08504044484417,
              34.09243377693111
            ],
            [
              -118.08514021885657,
              34.10441078593333
            ]
          ]
        ]
      }
    }
  ]
}