{
  "type": "FeatureCollection",
  "features": [
    {
      "type": "Feature",
      "properties": {
        "name": "LAX/Inglewood",
        "id": "608a0553-2150-41c2-9030-e74264c64f62"
      },
      "geometry": {
        "type": "Polygon",
        "coordinates": [
          [
            [
              -118.3857435,
              33.9654586
            ],
            [
              -118.372042,
              33.978061
            ],
            [
              -118.351872,
              33.976495
            ],
            [
              -118.346808,
              33.9708
            ],
            [
              -118.343117,
              33.972509
            ],
            [
              -118.3430296024316,
              33.92765385035385
            ],
            [
              -118.343203,
              33.915902
            ],
            [
              -118.3789997904657,
              33.91569807054497
            ],
            [
              -118.37876063025014,
              33.92744309313404
            ],
            [
              -118.37875837763198,
              33.93038257947769
            ],
            [
              -118.37974076798163,
              33.930460187584806
            ],
            [
              -118.37974076798163,
              33.93013481979537
            ],
            [
              -118.37965166455174,
              33.92868543908976
            ],
            [
              -118.37959820249358,
              33.927369143401855
            ],
            [
              -118.37877619831798,
              33.92743943201589
            ],
            [
              -118.37888312243395,
              33.92156762295951
            ],
            [
              -118.37893658449204,
              33.918638962394915
            ],
            [
              -118.37899980022792,
              33.9156974966898
            ],
            [
              -118.428009,
              33.915461
            ],
            [
              -118.450406,
              33.957591
            ],
            [
              -118.449955,
              33.959264
            ],
            [
              -118.444741,
              33.962316
            ],
            [
              -118.443603,
              33.960234
            ],
            [
              -118.442574,
              33.959023
            ],
            [
              -118.441994,
              33.957956
            ],
            [
              -118.44141472096891,
              33.95797445364399
            ],
            [
              -118.440471,
              33.958899
            ],
            [
              -118.4359,
              33.960954
            ],
            [
              -118.433797,
              33.960954
            ],
            [
              -118.432156,
              33.9618
            ],
            [
              -118.431759,
              33.961551
            ],
            [
              -118.424485,
              33.961666
            ],
            [
              -118.423734,
              33.961898
            ],
            [
              -118.42103,
              33.963535
            ],
            [
              -118.416917,
              33.963528
            ],
            [
              -118.416916,
              33.966171
            ],
            [
              -118.41551719004264,
              33.96620190233918
            ],
            [
              -118.41551719004264,
              33.96346544657091
            ],
            [
              -118.415108,
              33.963517
            ],
            [
              -118.413649,
              33.963749
            ],
            [
              -118.405902,
              33.963802
            ],
            [
              -118.402855,
              33.964122
            ],
            [
              -118.399336,
              33.964194
            ],
            [
              -118.395925,
              33.963802
            ],
            [
              -118.391268,
              33.963802
            ],
            [
              -118.3857435,
              33.9654586
            ]
          ],
          [
            [
              -118.385818,
              33.96539
            ],
            [
              -118.385732,
              33.965462
            ],
            [
              -118.3857435,
              33.9654586
            ],
            [
              -118.385818,
              33.96539
            ]
          ]
        ]
      }
    }
  ]
}