{
  "type": "FeatureCollection",
  "features": [
    {
      "type": "Feature",
      "properties": {
        "name": "Altadena/Pasadena/Sierra Madre",
        "id": "316bec67-3ab9-42b6-967b-14ab9813c62f"
      },
      "geometry": {
        "type": "Polygon",
        "coordinates": [
          [
            [
              -118.1551603,
              34.1353351
            ],
            [
              -118.1546024,
              34.1447621
            ],
            [
              -118.1547734,
              34.1467471
            ],
            [
              -118.1550313,
              34.1478531
            ],
            [
              -118.1553743,
              34.1483151
            ],
            [
              -118.1562763,
              34.1484221
            ],
            [
              -118.1568333,
              34.1481681
            ],
            [
              -118.1615223,
              34.1471651
            ],
            [
              -118.16248719348236,
              34.14655028025372
            ],
            [
              -118.1637021902269,
              34.14692971565453
            ],
            [
              -118.16464209336891,
              34.14778343907524
            ],
            [
              -118.16521520504094,
              34.14840949743347
            ],
            [
              -118.1654814,
              34.1487391
            ],
            [
              -118.1672096336593,
              34.15021176074121
            ],
            [
              -118.16757642512938,
              34.152279573374436
            ],
            [
              -118.16897481760896,
              34.1564529859503
            ],
            [
              -118.16835585700328,
              34.15943115881637
            ],
            [
              -118.16766573466076,
              34.16596603075336
            ],
            [
              -118.16659326338086,
              34.16643882480299
            ],
            [
              -118.16703339523069,
              34.168664306510074
            ],
            [
              -118.16698449169178,
              34.17066718987894
            ],
            [
              -118.16725346115558,
              34.17214403303013
            ],
            [
              -118.16774249654428,
              34.175421318672264
            ],
            [
              -118.16876947086055,
              34.17754541731249
            ],
            [
              -118.169747541638,
              34.18055952265723
            ],
            [
              -118.17646102324532,
              34.18430599744428
            ],
            [
              -118.17878952599254,
              34.18599413547794
            ],
            [
              -118.17894579539853,
              34.18673971378412
            ],
            [
              -118.1791125,
              34.1874771
            ],
            [
              -118.17919114292675,
              34.187917649094715
            ],
            [
              -118.17902649380268,
              34.18841535235068
            ],
            [
              -118.1786998206488,
              34.18919080280675
            ],
            [
              -118.17865009870644,
              34.19270655301581
            ],
            [
              -118.17844375792848,
              34.1934207481131
            ],
            [
              -118.17802343412164,
              34.19448254911215
            ],
            [
              -118.1772744935204,
              34.195601217844406
            ],
            [
              -118.1761942,
              34.1965111
            ],
            [
              -118.1755074,
              34.1980201
            ],
            [
              -118.1756364,
              34.1988711
            ],
            [
              -118.1625532,
              34.2188259
            ],
            [
              -118.14697274074642,
              34.21272553227691
            ],
            [
              -118.13361010113334,
              34.207421140474125
            ],
            [
              -118.12238548385817,
              34.20229324438865
            ],
            [
              -118.1178649214857,
              34.19982761199866
            ],
            [
              -118.11571316577542,
              34.19843215047112
            ],
            [
              -118.11449057730363,
              34.19762317669114
            ],
            [
              -118.1133291182555,
              34.196935542875956
            ],
            [
              -118.11241217690164,
              34.19627824060402
            ],
            [
              -118.11122626608407,
              34.1955198085385
            ],
            [
              -118.10994254818876,
              34.194569230716965
            ],
            [
              -118.10876886325586,
              34.193841121308424
            ],
            [
              -118.10825537609772,
              34.193578191365866
            ],
            [
              -118.10743624182165,
              34.19303210348104
            ],
            [
              -118.10642149339003,
              34.1925163505651
            ],
            [
              -118.1058186,
              34.1921801
            ],
            [
              -118.1053686,
              34.1915771
            ],
            [
              -118.10366919957704,
              34.19043858524334
            ],
            [
              -118.10216552879204,
              34.18930291984992
            ],
            [
              -118.10085798897902,
              34.188410600598935
            ],
            [
              -118.10036766154946,
              34.18805907830192
            ],
            [
              -118.09964851465229,
              34.18751827190747
            ],
            [
              -118.09896205625046,
              34.1872208269126
            ],
            [
              -118.0981775323626,
              34.1867070558144
            ],
            [
              -118.09683730405418,
              34.18594991375514
            ],
            [
              -118.09562782972715,
              34.18532797055105
            ],
            [
              -118.0943856669047,
              34.18492235294738
            ],
            [
              -118.0931761925776,
              34.184489692020406
            ],
            [
              -118.09013616251228,
              34.18316465412728
            ],
            [
              -118.0858636,
              34.1814331
            ],
            [
              -118.0672860739687,
              34.174463239108505
            ],
            [
              -118.05058551544451,
              34.17434185905024
            ],
            [
              -118.0505610636751,
              34.17217721869524
            ],
            [
              -118.0505121601362,
              34.17100383903631
            ],
            [
              -118.04584187217412,
              34.17106453148765
            ],
            [
              -118.0443014106997,
              34.17106453148765
            ],
            [
              -118.04351895407771,
              34.17106453148765
            ],
            [
              -118.04349450230832,
              34.16948651356713
            ],
            [
              -118.0435434058472,
              34.168333327967666
            ],
            [
              -118.04302991868904,
              34.168292865028945
            ],
            [
              -118.03058396804653,
              34.168373790886974
            ],
            [
              -118.03007437895354,
              34.14581804083022
            ],
            [
              -118.02795661816258,
              34.1458477473283
            ],
            [
              -118.0279567,
              34.1419611
            ],
            [
              -118.0318407,
              34.1418541
            ],
            [
              -118.0320557,
              34.1475191
            ],
            [
              -118.0387097,
              34.1484181
            ],
            [
              -118.0406417,
              34.1485251
            ],
            [
              -118.0447188,
              34.1477791
            ],
            [
              -118.0663907,
              34.1476371
            ],
            [
              -118.0676776,
              34.1473531
            ],
            [
              -118.0699956,
              34.1457901
            ],
            [
              -118.0722615,
              34.1457461
            ],
            [
              -118.0722615,
              34.1416611
            ],
            [
              -118.11210790319711,
              34.14119247762722
            ],
            [
              -118.11209404327398,
              34.13258015115921
            ],
            [
              -118.11085257683297,
              34.1324599858822
            ],
            [
              -118.11015331589745,
              34.12963124758772
            ],
            [
              -118.11326615490093,
              34.12879101005731
            ],
            [
              -118.11341277412936,
              34.13171313348393
            ],
            [
              -118.11349172294463,
              34.135400653050795
            ],
            [
              -118.1209144,
              34.1354011
            ],
            [
              -118.13957218597247,
              34.135393163544315
            ],
            [
              -118.13957240305176,
              34.135393343112554
            ],
            [
              -118.1391754249447,
              34.13539611640428
            ],
            [
              -118.1391717651069,
              34.135395108393936
            ],
            [
              -118.13920286669504,
              34.13539611640428
            ],
            [
              -118.13917556669703,
              34.13539579220655
            ],
            [
              -118.1391971120525,
              34.14473565097632
            ],
            [
              -118.13919813114705,
              34.14477890537586
            ],
            [
              -118.1384942790778,
              34.144770867987944
            ],
            [
              -118.13850885989946,
              34.1455536974598
            ],
            [
              -118.13965657885767,
              34.14554680031563
            ],
            [
              -118.13963783208693,
              34.14476052217543
            ],
            [
              -118.13919551152513,
              34.14477782181276
            ],
            [
              -118.1391717651069,
              34.135395108393936
            ],
            [
              -118.14813507661489,
              34.13531548361841
            ],
            [
              -118.14813507661489,
              34.132336567539106
            ],
            [
              -118.15318632143918,
              34.132323501886454
            ],
            [
              -118.15515946394873,
              34.132323501886454
            ],
            [
              -118.1551603,
              34.1353351
            ]
          ]
        ]
      }
    }
  ]
}