{
  "type": "FeatureCollection",
  "features": [
    {
      "type": "Feature",
      "properties": {
        "name": "Watts/Compton",
        "id": "68e885d7-a6d6-4fa8-afaa-e66d4b328afd"
      },
      "geometry": {
        "type": "Polygon",
        "coordinates": [
          [
            [
              -118.26653648536843,
              33.953511143389065
            ],
            [
              -118.25726886620708,
              33.95357026822365
            ],
            [
              -118.25662726180356,
              33.95390530817714
            ],
            [
              -118.24728835326404,
              33.954043265421674
            ],
            [
              -118.23797320785049,
              33.953925016368636
            ],
            [
              -118.2316522163199,
              33.95388559998105
            ],
            [
              -118.228990746202,
              33.95427976303618
            ],
            [
              -118.19766774484724,
              33.95066403019517
            ],
            [
              -118.19758489036569,
              33.95139494558989
            ],
            [
              -118.19679400667806,
              33.957160835816175
            ],
            [
              -118.17209109397218,
              33.954613293814546
            ],
            [
              -118.16479329544663,
              33.953721927717424
            ],
            [
              -118.15985732989837,
              33.952643472303
            ],
            [
              -118.15618189318768,
              33.951377920455606
            ],
            [
              -118.14977309920958,
              33.94820845585894
            ],
            [
              -118.14792874649062,
              33.94726199563039
            ],
            [
              -118.15295759311095,
              33.9402512590328
            ],
            [
              -118.14758375965116,
              33.93715842717998
            ],
            [
              -118.16128727843365,
              33.91882010584616
            ],
            [
              -118.1779345195376,
              33.926516119797235
            ],
            [
              -118.1776754,
              33.9251539
            ],
            [
              -118.1778685,
              33.9234802
            ],
            [
              -118.1790916,
              33.9185837
            ],
            [
              -118.1800209,
              33.9128046
            ],
            [
              -118.1808948,
              33.9093825
            ],
            [
              -118.1842422,
              33.9051797
            ],
            [
              -118.1862163,
              33.9016891
            ],
            [
              -118.1871604,
              33.8975571
            ],
            [
              -118.1881904,
              33.8904325
            ],
            [
              -118.1906794,
              33.8848749
            ],
            [
              -118.1938551,
              33.8712645
            ],
            [
              -118.19826706549034,
              33.86442662792282
            ],
            [
              -118.20616705151161,
              33.86449309615787
            ],
            [
              -118.20710861361519,
              33.868142876600956
            ],
            [
              -118.2473435026524,
              33.86707322919503
            ],
            [
              -118.24743391813273,
              33.85720181539527
            ],
            [
              -118.25148654672665,
              33.85721762887265
            ],
            [
              -118.25344331992973,
              33.85770026247214
            ],
            [
              -118.25698277734298,
              33.85768592686064
            ],
            [
              -118.26704864891087,
              33.85770981954607
            ],
            [
              -118.26727314227695,
              33.871970978840395
            ],
            [
              -118.26614312670067,
              33.87801467575372
            ],
            [
              -118.2656810128313,
              33.882847343326794
            ],
            [
              -118.2664679082577,
              33.885977975788194
            ],
            [
              -118.26645966166888,
              33.8859742053583
            ],
            [
              -118.2664919336879,
              33.886049240351745
            ],
            [
              -118.2664919336879,
              33.88607603854767
            ],
            [
              -118.2664919336879,
              33.886049240351745
            ],
            [
              -118.26647902488,
              33.88609211745915
            ],
            [
              -118.26649193368759,
              33.886113556005846
            ],
            [
              -118.26651129689903,
              33.88614571381568
            ],
            [
              -118.26650484249524,
              33.88615107344947
            ],
            [
              -118.26650484249524,
              33.886177871613505
            ],
            [
              -118.26651507408913,
              33.886166553082006
            ],
            [
              -118.26675035350236,
              33.92053279550499
            ],
            [
              -118.26653648536843,
              33.953511143389065
            ]
          ]
        ]
      }
    }
  ]
}